{
  "type": "FeatureCollection",
  "features": [
    {
      "type": "Feature",
      "properties": {
        "norad_id": 36680,
        "name": "FENGYUN 1C DEB",
        "group": "fengyun-1c-debris",
        "lat": 72.03965442957897,
        "lon": -176.41631341759208,
        "alt_km": 942.9220203178411,
        "timestamp": "2025-12-09T16:56:36.863276+00:00",
        "meta_object_name": "FENGYUN 1C DEB",
        "meta_object_id": "1999-025DZA",
        "meta_epoch": "2025-12-08T10:42:54.314208",
        "meta_mean_motion": 14.18615718,
        "meta_eccentricity": 0.01884659,
        "meta_inclination": 98.5487,
        "meta_ra_of_asc_node": 334.7218,
        "meta_arg_of_pericenter": 261.8756,
        "meta_mean_anomaly": 256.1951,
        "meta_ephemeris_type": 0,
        "meta_classification_type": "U",
        "meta_norad_cat_id": 36680,
        "meta_element_set_no": 999,
        "meta_rev_at_epoch": 64236,
        "meta_bstar": 0.0009607999,
        "meta_mean_motion_dot": 2.329e-05,
        "meta_mean_motion_ddot": 0,
        "tle_line1": "1 36680U 99025DZA 25342.44646197  .00002329  00000+0  96080-3 0  9996",
        "tle_line2": "2 36680  98.5487 334.7218 0188465 261.8756 256.1951 14.18615718642363"
      },
      "geometry": {
        "type": "Point",
        "coordinates": [
          -176.41631341759208,
          72.03965442957897
        ]
      }
    },
    {
      "type": "Feature",
      "properties": {
        "norad_id": 36681,
        "name": "FENGYUN 1C DEB",
        "group": "fengyun-1c-debris",
        "lat": 38.196117528419194,
        "lon": -24.493797898613945,
        "alt_km": 830.6802002152699,
        "timestamp": "2025-12-09T16:56:36.863287+00:00",
        "meta_object_name": "FENGYUN 1C DEB",
        "meta_object_id": "1999-025DZB",
        "meta_epoch": "2025-11-19T06:21:10.816992",
        "meta_mean_motion": 14.10187867,
        "meta_eccentricity": 0.00454,
        "meta_inclination": 98.6964,
        "meta_ra_of_asc_node": 322.6587,
        "meta_arg_of_pericenter": 56.031,
        "meta_mean_anomaly": 304.5163,
        "meta_ephemeris_type": 0,
        "meta_classification_type": "U",
        "meta_norad_cat_id": 36681,
        "meta_element_set_no": 999,
        "meta_rev_at_epoch": 72427,
        "meta_bstar": 0.00080116575,
        "meta_mean_motion_dot": 1.39e-05,
        "meta_mean_motion_ddot": 0,
        "tle_line1": "1 36681U 99025DZB 25323.26470853  .00001390  00000+0  80117-3 0  9991",
        "tle_line2": "2 36681  98.6964 322.6587 0045400  56.0310 304.5163 14.10187867724276"
      },
      "geometry": {
        "type": "Point",
        "coordinates": [
          -24.493797898613945,
          38.196117528419194
        ]
      }
    },
    {
      "type": "Feature",
      "properties": {
        "norad_id": 36682,
        "name": "FENGYUN 1C DEB",
        "group": "fengyun-1c-debris",
        "lat": -22.006770841494234,
        "lon": -108.68302896010287,
        "alt_km": 896.3194129441072,
        "timestamp": "2025-12-09T16:56:36.863297+00:00",
        "meta_object_name": "FENGYUN 1C DEB",
        "meta_object_id": "1999-025DZC",
        "meta_epoch": "2025-12-06T04:55:28.030656",
        "meta_mean_motion": 13.7010637,
        "meta_eccentricity": 0.02343342,
        "meta_inclination": 98.485,
        "meta_ra_of_asc_node": 244.7666,
        "meta_arg_of_pericenter": 294.8114,
        "meta_mean_anomaly": 62.8827,
        "meta_ephemeris_type": 0,
        "meta_classification_type": "U",
        "meta_norad_cat_id": 36682,
        "meta_element_set_no": 999,
        "meta_rev_at_epoch": 61303,
        "meta_bstar": 0.0027042096,
        "meta_mean_motion_dot": 2.849e-05,
        "meta_mean_motion_ddot": 0,
        "tle_line1": "1 36682U 99025DZC 25340.20518554  .00002849  00000+0  27042-2 0  9993",
        "tle_line2": "2 36682  98.4850 244.7666 0234334 294.8114  62.8827 13.70106370613038"
      },
      "geometry": {
        "type": "Point",
        "coordinates": [
          -108.68302896010287,
          -22.006770841494234
        ]
      }
    },
    {
      "type": "Feature",
      "properties": {
        "norad_id": 36684,
        "name": "FENGYUN 1C DEB",
        "group": "fengyun-1c-debris",
        "lat": -78.16903353260939,
        "lon": 127.91570350048296,
        "alt_km": 599.8930672107626,
        "timestamp": "2025-12-09T16:56:36.863307+00:00",
        "meta_object_name": "FENGYUN 1C DEB",
        "meta_object_id": "1999-025DZE",
        "meta_epoch": "2025-12-09T12:29:55.233024",
        "meta_mean_motion": 14.95831876,
        "meta_eccentricity": 0.002017,
        "meta_inclination": 99.4535,
        "meta_ra_of_asc_node": 74.9969,
        "meta_arg_of_pericenter": 120.9056,
        "meta_mean_anomaly": 239.4146,
        "meta_ephemeris_type": 0,
        "meta_classification_type": "U",
        "meta_norad_cat_id": 36684,
        "meta_element_set_no": 999,
        "meta_rev_at_epoch": 65853,
        "meta_bstar": 0.0064785,
        "meta_mean_motion_dot": 0.00073307,
        "meta_mean_motion_ddot": 0,
        "tle_line1": "1 36684U 99025DZE 25343.52077816  .00073307  00000+0  64785-2 0  9996",
        "tle_line2": "2 36684  99.4535  74.9969 0020170 120.9056 239.4146 14.95831876658539"
      },
      "geometry": {
        "type": "Point",
        "coordinates": [
          127.91570350048296,
          -78.16903353260939
        ]
      }
    },
    {
      "type": "Feature",
      "properties": {
        "norad_id": 36686,
        "name": "FENGYUN 1C DEB",
        "group": "fengyun-1c-debris",
        "lat": 4.025725798790506,
        "lon": 174.1207844833604,
        "alt_km": 601.8079756902071,
        "timestamp": "2025-12-09T16:56:36.863317+00:00",
        "meta_object_name": "FENGYUN 1C DEB",
        "meta_object_id": "1999-025DZG",
        "meta_epoch": "2025-12-08T06:47:07.320768",
        "meta_mean_motion": 14.77124194,
        "meta_eccentricity": 0.01052891,
        "meta_inclination": 99.0012,
        "meta_ra_of_asc_node": 173.1732,
        "meta_arg_of_pericenter": 67.3219,
        "meta_mean_anomaly": 293.9079,
        "meta_ephemeris_type": 0,
        "meta_classification_type": "U",
        "meta_norad_cat_id": 36686,
        "meta_element_set_no": 999,
        "meta_rev_at_epoch": 65786,
        "meta_bstar": 0.0010962616,
        "meta_mean_motion_dot": 8.434e-05,
        "meta_mean_motion_ddot": 0,
        "tle_line1": "1 36686U 99025DZG 25342.28272362  .00008434  00000+0  10963-2 0  9991",
        "tle_line2": "2 36686  99.0012 173.1732 0105289  67.3219 293.9079 14.77124194657860"
      },
      "geometry": {
        "type": "Point",
        "coordinates": [
          174.1207844833604,
          4.025725798790506
        ]
      }
    },
    {
      "type": "Feature",
      "properties": {
        "norad_id": 36687,
        "name": "FENGYUN 1C DEB",
        "group": "fengyun-1c-debris",
        "lat": -54.78152195214471,
        "lon": -122.29089392772255,
        "alt_km": 833.4808195539099,
        "timestamp": "2025-12-09T16:56:36.863328+00:00",
        "meta_object_name": "FENGYUN 1C DEB",
        "meta_object_id": "1999-025DZH",
        "meta_epoch": "2025-12-09T12:23:51.138240",
        "meta_mean_motion": 14.04528107,
        "meta_eccentricity": 0.0090301,
        "meta_inclination": 98.7162,
        "meta_ra_of_asc_node": 70.0789,
        "meta_arg_of_pericenter": 274.4984,
        "meta_mean_anomaly": 84.5872,
        "meta_ephemeris_type": 0,
        "meta_classification_type": "U",
        "meta_norad_cat_id": 36687,
        "meta_element_set_no": 999,
        "meta_rev_at_epoch": 62677,
        "meta_bstar": 0.00041266,
        "meta_mean_motion_dot": 6.4e-06,
        "meta_mean_motion_ddot": 0,
        "tle_line1": "1 36687U 99025DZH 25343.51656410  .00000640  00000+0  41266-3 0  9991",
        "tle_line2": "2 36687  98.7162  70.0789 0090301 274.4984  84.5872 14.04528107626771"
      },
      "geometry": {
        "type": "Point",
        "coordinates": [
          -122.29089392772255,
          -54.78152195214471
        ]
      }
    },
    {
      "type": "Feature",
      "properties": {
        "norad_id": 36689,
        "name": "FENGYUN 1C DEB",
        "group": "fengyun-1c-debris",
        "lat": 7.534377061254882,
        "lon": -123.24823331285745,
        "alt_km": 877.1191013978032,
        "timestamp": "2025-12-09T16:56:36.863338+00:00",
        "meta_object_name": "FENGYUN 1C DEB",
        "meta_object_id": "1999-025DZK",
        "meta_epoch": "2025-11-28T10:04:14.213280",
        "meta_mean_motion": 13.74189275,
        "meta_eccentricity": 0.03131537,
        "meta_inclination": 98.4796,
        "meta_ra_of_asc_node": 227.8431,
        "meta_arg_of_pericenter": 334.7216,
        "meta_mean_anomaly": 23.8887,
        "meta_ephemeris_type": 0,
        "meta_classification_type": "U",
        "meta_norad_cat_id": 36689,
        "meta_element_set_no": 999,
        "meta_rev_at_epoch": 58016,
        "meta_bstar": 0.0027905602,
        "meta_mean_motion_dot": 3.71e-05,
        "meta_mean_motion_ddot": 0,
        "tle_line1": "1 36689U 99025DZK 25332.41960895  .00003710  00000+0  27906-2 0  9990",
        "tle_line2": "2 36689  98.4796 227.8431 0313153 334.7216  23.8887 13.74189275580169"
      },
      "geometry": {
        "type": "Point",
        "coordinates": [
          -123.24823331285745,
          7.534377061254882
        ]
      }
    }
  ]
}